ONEWEB-0116             
1 48046U 21025E   24308.59909599  .00000235  00000+0  60726-3 0  9997
2 48046  87.8906  77.6800 0001721  98.0096 262.1228 13.13470735176127
ONEWEB-0150             
1 48047U 21025F   24308.42132959  .00000280  00000+0  73217-3 0  9997
2 48047  87.8899  77.7265 0001406  99.8876 260.2412 13.13469711175990
ONEWEB-0107             
1 48048U 21025G   24308.42293824  .00000355  00000+0  93596-3 0  9992
2 48048  87.8899  77.7241 0001183  86.4537 273.6727 13.13470872175978
ONEWEB-0101             
1 48049U 21025H   24308.61495491 -.00000150  00000+0 -44679-3 0  9991
2 48049  87.8905  77.7098 0001524  94.0179 266.1124 13.13470322175971
ONEWEB-0113             
1 48050U 21025J   24308.59274874  .00000327  00000+0  86127-3 0  9998
2 48050  87.8905  77.6952 0001631  96.7101 263.4213 13.13470561176058
ONEWEB-0112             
1 48051U 21025K   24308.42768998  .00000412  00000+0  10927-2 0  9995
2 48051  87.8898  77.7204 0001536  99.6712 260.4591 13.13471755176046
ONEWEB-0156             
1 48052U 21025L   24308.36102367  .00000446  00000+0  11852-2 0  9996
2 48052  87.8903  77.7363 0001524  97.9554 262.1748 13.13469668176012
ONEWEB-0161             
1 48053U 21025M   24308.63877252 -.00000041  00000+0 -14784-3 0  9990
2 48053  87.8906  77.6918 0001411  94.7462 265.3828 13.13471958175983
